     2              NAVIGATION DATA                         RINEX VERSION / TYPE
ephVote             Stanford GPS Lab    2021-03-25 10:14:06 PGM / RUN BY / DATE 
                                                            END OF HEADER       
 8 20  1  8  8  0  0.0 -1.948792487383E-05 -1.250555214938E-12  0.000000000000E+00
     7.200000000000E+01 -2.253125000000E+01  4.594119934964E-09 -9.159592380874E-01
    -1.350417733192E-06  4.990350687876E-03  5.979090929031E-07  5.153606389999E+03
     2.880000000000E+05  3.539025783539E-08 -1.773067939968E+00 -1.061707735062E-07
     9.698582281567E-01  3.706562500000E+02 -2.155680068385E-01 -8.408207378444E-09
     3.678724662220E-11  1.000000000000E+00  2.087000000000E+03  0.000000000000E+00
     2.400000000000E+00  0.000000000000E+00  5.122274160385E-09  7.200000000000E+01
     2.808000000000E+05  4.000000000000E+00  9.007777777778E+01  8.102222222222E+01
 8 20  1  8 10  0  0.0 -1.949677243829E-05 -1.250555214938E-12  0.000000000000E+00
     7.500000000000E+01 -2.406250000000E+01  4.602334562851E-09  1.342294866026E-01
    -1.288950443268E-06  4.991012159735E-03  2.589076757431E-07  5.153607429504E+03
     2.952000000000E+05  8.381903171539E-08 -1.773128415539E+00  1.676380634308E-08
     9.698578360947E-01  3.777500000000E+02 -2.155341680804E-01 -8.513568910032E-09
    -2.821546100149E-11  1.000000000000E+00  2.087000000000E+03  0.000000000000E+00
     2.400000000000E+00  0.000000000000E+00  5.122274160385E-09  7.500000000000E+01
     2.880000000000E+05  4.000000000000E+00  1.252080000000E+02  7.216800000000E+01
 8 20  1  8 12  0  0.0 -1.950562000275E-05 -1.250555214938E-12  0.000000000000E+00
     7.600000000000E+01 -1.921875000000E+01  4.548046587253E-09  1.184328054577E+00
    -9.965151548386E-07  4.992220434360E-03 -1.993030309677E-07  5.153609964371E+03
     3.024000000000E+05  4.656612873077E-08 -1.773189429463E+00  8.381903171539E-08
     9.698577146725E-01  3.865937500000E+02 -2.154121182879E-01 -8.470709981929E-09
    -5.821671067396E-11  1.000000000000E+00  2.087000000000E+03  0.000000000000E+00
     2.400000000000E+00  0.000000000000E+00  5.122274160385E-09  7.600000000000E+01
     2.952000000000E+05  4.000000000000E+00  1.993065326633E+02  1.050854271357E+02
 8 20  1  8 14  0  0.0 -1.951446756721E-05 -1.250555214938E-12  0.000000000000E+00
     7.800000000000E+01 -1.981250000000E+01  4.540189117101E-09  2.234461709179E+00
    -1.003965735435E-06  4.992088535801E-03  3.911554813385E-08  5.153610801697E+03
     3.096000000000E+05 -3.166496753693E-08 -1.773250335131E+00  9.872019290924E-08
     9.698572245949E-01  3.833125000000E+02 -2.153258851188E-01 -8.448566202408E-09
    -5.643092200298E-11  1.000000000000E+00  2.087000000000E+03  0.000000000000E+00
     2.400000000000E+00  0.000000000000E+00  5.122274160385E-09  7.800000000000E+01
     3.024000000000E+05  4.000000000000E+00  2.510677290837E+02  2.150637450199E+02
 8 20  1  8 16  0  0.0 -1.952378079295E-05 -1.250555214938E-12  0.000000000000E+00
     8.100000000000E+01 -1.237500000000E+01  4.492329980718E-09 -2.998442320335E+00
    -5.234032869339E-07  4.993328708224E-03  4.097819328308E-07  5.153608423233E+03
     3.168000000000E+05 -6.705522537231E-08 -1.773311217393E+00 -1.676380634308E-08
     9.698574220888E-01  3.775000000000E+02 -2.153870731304E-01 -8.351776456441E-09
     7.143154683922E-13  1.000000000000E+00  2.087000000000E+03  0.000000000000E+00
     2.400000000000E+00  0.000000000000E+00  5.122274160385E-09  8.100000000000E+01
     3.096000000000E+05  4.000000000000E+00  1.810662983425E+02  1.600497237569E+02
 8 20  1  8 18  0  0.0 -1.953262835741E-05 -1.250555214938E-12  0.000000000000E+00
     8.200000000000E+01 -9.750000000000E+00  4.465543150654E-09 -1.948176292128E+00
    -4.731118679047E-07  4.993417067453E-03  6.128102540970E-07  5.153608551025E+03
     3.240000000000E+05 -4.097819328308E-08 -1.773371397454E+00 -3.725290298462E-08
     9.698574294034E-01  3.751562500000E+02 -2.154323197237E-01 -8.358919611125E-09
     1.142904749427E-11  1.000000000000E+00  2.087000000000E+03  0.000000000000E+00
     2.400000000000E+00  0.000000000000E+00  5.122274160385E-09  8.200000000000E+01
     3.168000000000E+05  4.000000000000E+00  1.310305343511E+02  1.240229007634E+02
 8 20  1  8 20  0  0.0 -1.954147592187E-05 -1.250555214938E-12  0.000000000000E+00
     8.400000000000E+01 -6.156250000000E+00  4.473400620806E-09 -8.980725351830E-01
    -3.241002559662E-07  4.993041162379E-03  2.775341272354E-07  5.153607353210E+03
     3.312000000000E+05  1.862645149231E-08 -1.773431336134E+00 -1.210719347000E-07
     9.698573869788E-01  3.801875000000E+02 -2.153158977771E-01 -8.375706024632E-09
    -4.857345185067E-11  1.000000000000E+00  2.087000000000E+03  0.000000000000E+00
     2.400000000000E+00  0.000000000000E+00  5.122274160385E-09  8.400000000000E+01
     3.240000000000E+05  4.000000000000E+00  9.403191489362E+01  9.001063829787E+01
 8 20  1  8 22  0  0.0 -1.955032348633E-05 -1.250555214938E-12  0.000000000000E+00
     8.700000000000E+01 -2.593750000000E+00  4.617692345421E-09  1.520594151193E-01
    -3.315508365631E-07  4.993015783839E-03 -1.136213541031E-07  5.153606992722E+03
     3.384000000000E+05  7.823109626770E-08 -1.773491571785E+00  5.029141902924E-08
     9.698561142401E-01  3.853750000000E+02 -2.152259341669E-01 -8.524640799792E-09
    -1.371485699313E-10  1.000000000000E+00  2.087000000000E+03  0.000000000000E+00
     2.400000000000E+00  0.000000000000E+00  5.122274160385E-09  8.700000000000E+01
     3.312000000000E+05  4.000000000000E+00  1.530653594771E+02  1.400130718954E+02
 9 20  1  8  0  0  0.0 -1.272726804018E-04 -8.753886504564E-12  0.000000000000E+00
     3.600000000000E+01 -1.015625000000E+01  5.070568352382E-09  1.457342687807E+00
    -5.364418029785E-07  1.715224818327E-03  5.478039383888E-06  5.153519487381E+03
     2.592000000000E+05  2.048909664154E-08  1.368462223613E+00 -4.656612873077E-08
     9.521085129012E-01  2.683437500000E+02  1.703394137477E+00 -8.246414924853E-09
    -9.107522222000E-11  1.000000000000E+00  2.087000000000E+03  0.000000000000E+00
     2.400000000000E+00  0.000000000000E+00  1.396983861923E-09  3.600000000000E+01
     2.520000000000E+05  4.000000000000E+00  2.620572519084E+02  2.420152671756E+02
 9 20  1  8  2  0  0.0 -1.273360103369E-04 -8.753886504564E-12  0.000000000000E+00
     3.700000000000E+01 -8.062500000000E+00  5.032709632557E-09  2.507487756096E+00
    -3.650784492493E-07  1.715067657642E-03  5.466863512993E-06  5.153520004272E+03
     2.664000000000E+05  1.676380634308E-08  1.368403417232E+00  4.097819328308E-08
     9.521080345270E-01  2.685625000000E+02  1.703527802839E+00 -8.169268854267E-09
    -1.282196265764E-10  1.000000000000E+00  2.087000000000E+03  0.000000000000E+00
     2.400000000000E+00  0.000000000000E+00  1.396983861923E-09  3.700000000000E+01
     2.592000000000E+05  4.000000000000E+00  1.540259740260E+02  1.470194805195E+02
 9 20  1  8  4  0  0.0 -1.273988746107E-04 -8.753886504564E-12  0.000000000000E+00
     3.800000000000E+01 -7.656250000000E+00  5.044495837785E-09 -2.725467526754E+00
    -3.445893526077E-07  1.714663347229E-03  5.716457962990E-06  5.153520780563E+03
     2.736000000000E+05  1.117587089539E-08  1.368344805419E+00 -1.862645149231E-09
     9.521069680597E-01  2.656250000000E+02  1.703575979658E+00 -8.168197381064E-09
    -1.650068731986E-10  1.000000000000E+00  2.087000000000E+03  0.000000000000E+00
     2.400000000000E+00  0.000000000000E+00  1.396983861923E-09  3.800000000000E+01
     2.664000000000E+05  4.000000000000E+00  8.208536585366E+01  7.301219512195E+01
 9 20  1  8  6  0  0.0 -1.274622045457E-04 -8.753886504564E-12  0.000000000000E+00
     3.900000000000E+01 -9.062500000000E+00  5.095212236041E-09 -1.675039894375E+00
    -5.085021257401E-07  1.714521436952E-03  5.589798092842E-06  5.153521333694E+03
     2.808000000000E+05 -7.450580596924E-09  1.368285985872E+00  5.960464477539E-08
     9.521054568654E-01  2.671875000000E+02  1.703426470893E+00 -8.227128407207E-09
    -1.875078104529E-10  1.000000000000E+00  2.087000000000E+03  0.000000000000E+00
     2.400000000000E+00  0.000000000000E+00  1.396983861923E-09  3.900000000000E+01
     2.736000000000E+05  4.000000000000E+00  1.911099476440E+02  1.520942408377E+02
 9 20  1  8  8  0  0.0 -1.275255344808E-04 -8.753886504564E-12  0.000000000000E+00
     4.000000000000E+01 -8.875000000000E+00  5.113784438220E-09 -6.246812488243E-01
    -5.327165126801E-07  1.714490121230E-03  5.511566996574E-06  5.153521545410E+03
     2.880000000000E+05 -2.421438694000E-08  1.368226383664E+00  3.725290298462E-09
     9.521039807810E-01  2.686875000000E+02  1.703346041120E+00 -8.276773332260E-09
    -1.689356082747E-10  1.000000000000E+00  2.087000000000E+03  0.000000000000E+00
     2.400000000000E+00  0.000000000000E+00  1.396983861923E-09  4.000000000000E+01
     2.808000000000E+05  4.000000000000E+00  2.371054852321E+02  1.910886075949E+02
 9 20  1  8 10  0  0.0 -1.275888644159E-04 -8.753886504564E-12  0.000000000000E+00
     4.100000000000E+01 -8.062500000000E+00  5.132713798132E-09  4.255651557998E-01
    -5.066394805908E-07  1.713652396575E-03  5.183741450310E-06  5.153519952774E+03
     2.952000000000E+05 -2.607703208923E-08  1.368166818028E+00 -3.725290298462E-09
     9.521027446153E-01  2.745625000000E+02  1.703378330648E+00 -8.276773332260E-09
    -1.742929742877E-10  1.000000000000E+00  2.087000000000E+03  0.000000000000E+00
     2.400000000000E+00  0.000000000000E+00  1.396983861923E-09  4.100000000000E+01
     2.880000000000E+05  4.000000000000E+00  2.463943089431E+02  9.810162601626E+01
